{"spkid": "20208115", "covariance": {"epoch": "2453393.5", "labels": ["e", "q", "tp", "node", "peri", "i"], "elements": [{"sigma": 8.91956559607879e-08, "name": "e", "units": null, "title": "eccentricity", "value": ".3548728338706062", "label": "e"}, {"label": "q", "units": "au", "title": "perihelion distance", "value": ".8384968465728357", "name": "q", "sigma": 1.2229371854632e-07}, {"units": "TDB", "value": "2453147.631483278086", "title": "time of perihelion passage", "name": "tp", "sigma": 4.42992167372152e-05, "label": "tp"}, {"label": "node", "sigma": 1.98584882966122e-05, "name": "om", "units": "deg", "title": "longitude of the ascending node", "value": "135.6585534987525"}, {"units": "deg", "value": "292.3047771207178", "title": "argument of perihelion", "name": "w", "sigma": 3.23873370621977e-05, "label": "peri"}, {"label": "i", "name": "i", "sigma": 3.07169343720716e-05, "units": "deg", "value": "23.29067978636138", "title": "inclination"}], "data": [["7.955865042275239E-15", "-1.089711535916211E-14", "-1.564523901473493E-12", "-2.244375596858981E-15", "-7.935558394853417E-13", "-4.556995615401996E-15"], ["-1.089711535916211E-14", "1.495575359588653E-14", "2.179639833508262E-12", "-1.141645936967939E-15", "1.093080922934059E-12", "3.247980611379444E-14"], ["-1.564523901473493E-12", "2.179639833508262E-12", "1.962420603530768E-9", "9.470709120569513E-11", "1.132962288630196E-9", "-3.264619299827393E-10"], ["-2.244375596858981E-15", "-1.141645936967939E-15", "9.470709120569513E-11", "3.943595574266852E-10", "-2.986106370247973E-10", "2.628163929184919E-10"], ["-7.935558394853417E-13", "1.093080922934059E-12", "1.132962288630196E-9", "-2.986106370247973E-10", "1.048939601980404E-9", "-4.534269710707838E-10"], ["-4.556995615401996E-15", "3.247980611379444E-14", "-3.264619299827393E-10", "2.628163929184919E-10", "-4.534269710707838E-10", "9.435300572181542E-10"]]}, "elements": [{"units": null, "title": "eccentricity", "value": ".3546257931437762", "sigma": "8.9759E-8", "name": "e", "label": "e"}, {"label": "a", "title": "semi-major axis", "value": "1.299353921151739", "units": "au", "name": "a", "sigma": "1.1684E-8"}, {"label": "q", "sigma": "1.2234E-7", "name": "q", "value": ".8385695062888281", "title": "perihelion distance", "units": "au"}, {"name": "i", "sigma": "3.0723E-5", "title": "inclination; angle with respect to x-y ecliptic plane", "value": "23.2992291923248", "units": "deg", "label": "i"}, {"label": "node", "title": "longitude of the ascending node", "value": "135.5454138965805", "units": "deg", "sigma": "1.9872E-5", "name": "om"}, {"units": "deg", "title": "argument of perihelion", "value": "292.4427275539705", "name": "w", "sigma": "3.245E-5", "label": "peri"}, {"label": "M", "name": "ma", "sigma": "9.2194E-5", "title": "mean anomaly", "value": "317.9113011922165", "units": "deg"}, {"label": "tp", "sigma": ".00013935", "name": "tp", "title": "time of perihelion passage", "value": "2461263.748847694759", "units": "TDB"}, {"title": "sidereal orbital period", "value": "540.9904752366039", "units": "d", "name": "per", "sigma": "7.2973E-6", "label": "period"}, {"units": "deg/d", "value": ".6654460965187102", "title": "mean motion", "sigma": "8.9761E-9", "name": "n", "label": "n"}, {"sigma": "1.5828E-8", "name": "ad", "value": "1.760138336014651", "title": "aphelion distance", "units": "au", "label": "Q"}], "epoch": "2461200.5"}